IRIDIUM 156             
1 43576U 18061H   26161.41965639  .00000361  00000+0  12177-3 0  9990
2 43576  86.3962  59.5590 0002122  79.6620 280.4815 14.34216545412405
IRIDIUM 164             
1 43577U 18061J   26161.47039887  .00000070  00000+0  18021-4 0  9996
2 43577  86.3968  59.5782 0002108  88.6040 271.5397 14.34217455412457
IRIDIUM 159             
1 43578U 18061K   26161.22937997  .00000193  00000+0  61820-4 0  9990
2 43578  86.3964  59.6160 0002311  84.5508 275.5952 14.34217075412386
IRIDIUM 180             
1 43922U 19002A   26161.50795043  .00000028  00000+0  27641-5 0  9995
2 43922  86.3972 356.3906 0002248  89.0155 271.1299 14.34217790388034
IRIDIUM 176             
1 43923U 19002B   26161.49814536  .00000684  00000+0  10456-3 0  9995
2 43923  86.6093 356.3391 0002226  91.1634 268.9838 14.72258110398264
IRIDIUM 168             
1 43924U 19002C   26161.50160865  .00000035  00000+0  55347-5 0  9997
2 43924  86.3974 356.4703 0002185  88.9940 271.1506 14.34217665388014
IRIDIUM 173             
1 43925U 19002D   26161.48892240  .00000046  00000+0  94834-5 0  9990
2 43925  86.3971 356.3647 0002234  86.5942 273.5510 14.34217308387990
IRIDIUM 169             
1 43926U 19002E   26160.39243543  .00000237  00000+0  71085-4 0  9990
2 43926  86.4233  28.4526 0002129  70.4730 289.6698 14.38610903389108
IRIDIUM 172             
1 43927U 19002F   26161.48257750  .00000130  00000+0  39345-4 0  9992
2 43927  86.3970 356.3752 0002268  88.4466 271.6989 14.34219105388006
IRIDIUM 175             
1 43928U 19002G   26161.34434653  .00000284  00000+0  77855-4 0  9995
2 43928  86.4506 293.3817 0001607 206.0995 154.0125 14.43608985397998
IRIDIUM 171             
1 43929U 19002H   26161.53331880 -.00000016  00000+0 -12662-4 0  9995
2 43929  86.3979 356.6592 0001994  87.1131 273.0293 14.34218499388001
IRIDIUM 170             
1 43930U 19002J   26161.50432823  .00000681  00000+0  10408-3 0  9994
2 43930  86.6091 356.3389 0002361  87.9297 272.2190 14.72258532398273
IRIDIUM 167             
1 43931U 19002K   26161.24790388  .00000038  00000+0  65073-5 0  9995
2 43931  86.3972 356.4957 0001857  86.8125 273.3284 14.34217696387962
IRIDIUM 181             
1 56726U 23068S   26161.45083759  .00000266  00000+0  73103-4 0  9993
2 56726  86.4503  59.6065 0002312  90.6941 269.4525 14.43311027161469
IRIDIUM 177             
1 56727U 23068T   26161.49479604  .00000632  00000+0  79631-4 0  9995
2 56727  86.1961 331.9710 0002431  87.6641 272.4858 14.80217275165371
IRIDIUM 174             
1 56728U 23068U   26161.49197461  .00000709  00000+0  10857-3 0  9993
2 56728  86.6099 356.4909 0002559  84.9903 275.1606 14.72254625165038
IRIDIUM 178             
1 56729U 23068V   26161.34872216  .00000849  00000+0  10829-3 0  9990
2 56729  86.6544  28.2182 0002683  88.1974 271.9555 14.80221909165353
IRIDIUM 179             
1 56730U 23068W   26161.41094579  .00000821  00000+0  10457-3 0  9995
2 56730  86.6784  37.1519 0002403  87.3076 272.8421 14.80238701165369
