OBJECT_NAME,OBJECT_ID,EPOCH,MEAN_MOTION,ECCENTRICITY,INCLINATION,RA_OF_ASC_NODE,ARG_OF_PERICENTER,MEAN_ANOMALY,EPHEMERIS_TYPE,CLASSIFICATION_TYPE,NORAD_CAT_ID,ELEMENT_SET_NO,REV_AT_EPOCH,BSTAR,MEAN_MOTION_DOT,MEAN_MOTION_DDOT
IRIDIUM 156,2018-061H,2026-06-10T10:04:18.312096,14.34216545,.0002122,86.3962,59.5590,79.6620,280.4815,0,U,43576,999,41240,.12177E-3,.361E-5,0
IRIDIUM 164,2018-061J,2026-06-10T11:17:22.462368,14.34217455,.0002108,86.3968,59.5782,88.6040,271.5397,0,U,43577,999,41245,.18021E-4,.7E-6,0
IRIDIUM 159,2018-061K,2026-06-10T05:30:18.429408,14.34217075,.0002311,86.3964,59.6160,84.5508,275.5952,0,U,43578,999,41238,.6182E-4,.193E-5,0
IRIDIUM 180,2019-002A,2026-06-10T12:11:26.917152,14.34217790,.0002248,86.3972,356.3906,89.0155,271.1299,0,U,43922,999,38803,.27641E-5,.28E-6,0
IRIDIUM 176,2019-002B,2026-06-10T11:57:19.759104,14.72258110,.0002226,86.6093,356.3391,91.1634,268.9838,0,U,43923,999,39826,.10456E-3,.684E-5,0
IRIDIUM 168,2019-002C,2026-06-10T12:02:18.987360,14.34217665,.0002185,86.3974,356.4703,88.9940,271.1506,0,U,43924,999,38801,.55347E-5,.35E-6,0
IRIDIUM 173,2019-002D,2026-06-10T11:44:02.895360,14.34217308,.0002234,86.3971,356.3647,86.5942,273.5510,0,U,43925,999,38799,.94834E-5,.46E-6,0
IRIDIUM 169,2019-002E,2026-06-09T09:25:06.421152,14.38610903,.00021297,86.4233,28.4526,70.4730,289.6698,0,U,43926,999,38910,.71085381E-4,.237E-5,0
IRIDIUM 172,2019-002F,2026-06-10T11:34:54.696000,14.34219105,.0002268,86.3970,356.3752,88.4466,271.6989,0,U,43927,999,38800,.39345E-4,.13E-5,0
IRIDIUM 175,2019-002G,2026-06-10T08:15:51.540192,14.43608985,.0001607,86.4506,293.3817,206.0995,154.0125,0,U,43928,999,39799,.77855E-4,.284E-5,0
IRIDIUM 171,2019-002H,2026-06-10T12:47:58.744320,14.34218499,.0001994,86.3979,356.6592,87.1131,273.0293,0,U,43929,999,38800,-.12662E-4,-.16E-6,0
IRIDIUM 170,2019-002J,2026-06-10T12:06:13.959072,14.72258532,.0002361,86.6091,356.3389,87.9297,272.2190,0,U,43930,999,39827,.10408E-3,.681E-5,0
IRIDIUM 167,2019-002K,2026-06-10T05:56:58.895232,14.34217696,.0001857,86.3972,356.4957,86.8125,273.3284,0,U,43931,999,38796,.65073E-5,.38E-6,0
IRIDIUM 181,2023-068S,2026-06-10T10:49:12.367776,14.43311027,.0002312,86.4503,59.6065,90.6941,269.4525,0,U,56726,999,16146,.73103E-4,.266E-5,0
IRIDIUM 177,2023-068T,2026-06-10T11:52:30.377856,14.80217275,.0002431,86.1961,331.9710,87.6641,272.4858,0,U,56727,999,16537,.79631E-4,.632E-5,0
IRIDIUM 174,2023-068U,2026-06-10T11:48:26.606304,14.72254625,.0002559,86.6099,356.4909,84.9903,275.1606,0,U,56728,999,16503,.10857E-3,.709E-5,0
IRIDIUM 178,2023-068V,2026-06-10T08:22:09.594624,14.80221909,.0002683,86.6544,28.2182,88.1974,271.9555,0,U,56729,999,16535,.10829E-3,.849E-5,0
IRIDIUM 179,2023-068W,2026-06-10T09:51:45.716256,14.80238701,.0002403,86.6784,37.1519,87.3076,272.8421,0,U,56730,999,16536,.10457E-3,.821E-5,0
